ORBCOMM FM27            
1 25481U 98053G   23295.88702589  .00002048  00000+0  76539-3 0  9999
2 25481  45.0055 240.0481 0002161 305.4147  54.6498 14.34760032310936
ORBCOMM FM32            
1 25982U 99065C   23296.04253496  .00001688  00000+0  65604-3 0  9996
2 25982  45.0167  63.9454 0006235 247.5336 112.4851 14.33449632248104
ORBCOMM FM24 [-]        
1 25478U 98053D   23296.14708019  .00001903  00000+0  71410-3 0  9991
2 25478  45.0080 240.3321 0001324 351.8791   8.2035 14.34804049311026
ORBCOMM FM25 [-]        
1 25479U 98053E   23295.55399368  .00001744  00000+0  65886-3 0  9992
2 25479  45.0071 241.3626 0002180  82.0224 278.0870 14.34782157310951
ORBCOMM FM26 [-]        
1 25480U 98053F   23295.56128904  .00001467  00000+0  56683-3 0  9998
2 25480  45.0075 234.6982 0003934 124.4084 235.7135 14.34347793310902
ORBCOMM FM28 [-]        
1 25482U 98053H   23295.93877147  .00001601  00000+0  60324-3 0  9998
2 25482  45.0058 178.9865 0002918 148.2702 211.8322 14.35250279311601
ORBCOMM FM30 [-]        
1 25980U 99065A   23295.61199946  .00001586  00000+0  60693-3 0  9995
2 25980  45.0319  59.7882 0007247 224.8455 135.1808 14.34476237247704
ORBCOMM FM31 [-]        
1 25981U 99065B   23295.64915301  .00001590  00000+0  60825-3 0  9992
2 25981  45.0242  53.4697 0004292 240.8453 119.1965 14.34504502247262
